{
  "type": "FeatureCollection",
  "features": [
    {
      "type": "Feature",
      "properties": {
        "distance_m": 668,
        "walk_minutes": 9
      },
      "geometry": {
        "type": "LineString",
        "coordinates": [
          [127.1367356, 37.5359442],
          [127.136796, 37.536027],
          [127.137025, 37.535922],
          [127.13769, 37.53562],
          [127.137716, 37.535606],
          [127.137952, 37.535481],
          [127.138838, 37.535135],
          [127.138958, 37.535088],
          [127.139202, 37.53572],
          [127.139327, 37.536052],
          [127.139673, 37.53697],
          [127.139735, 37.537137],
          [127.139866, 37.537484],
          [127.140019, 37.537891],
          [127.140103, 37.538113],
          [127.140343, 37.538752],
          [127.140225, 37.538781],
          [127.140066, 37.538819],
          [127.140097, 37.5389023]
        ]
      }
    }
  ]
}
