{
  "type": "FeatureCollection",
  "features": [
    {
      "type": "Feature",
      "properties": {
        "distance_m": 379,
        "duration_s": 51,
        "walk_minutes": 5
      },
      "geometry": {
        "coordinates": [
          [
            127.1331061,
            37.5257786
          ],
          [
            127.133126,
            37.525831
          ],
          [
            127.133039,
            37.5258518
          ],
          [
            127.132952,
            37.5258727
          ],
          [
            127.132865,
            37.5258935
          ],
          [
            127.132778,
            37.5259143
          ],
          [
            127.132691,
            37.5259352
          ],
          [
            127.132604,
            37.525956
          ],
          [
            127.132508,
            37.5259792
          ],
          [
            127.132412,
            37.5260025
          ],
          [
            127.132316,
            37.5260258
          ],
          [
            127.13222,
            37.526049
          ],
          [
            127.1321163,
            37.5260743
          ],
          [
            127.1320127,
            37.5260997
          ],
          [
            127.131909,
            37.526125
          ],
          [
            127.1318105,
            37.526149
          ],
          [
            127.131712,
            37.526173
          ],
          [
            127.1316135,
            37.526197
          ],
          [
            127.131515,
            37.526221
          ],
          [
            127.1314274,
            37.5262487
          ],
          [
            127.1313399,
            37.5262764
          ],
          [
            127.1312523,
            37.5263041
          ],
          [
            127.1311647,
            37.5263319
          ],
          [
            127.1310771,
            37.5263596
          ],
          [
            127.1309896,
            37.5263873
          ],
          [
            127.130902,
            37.526415
          ],
          [
            127.1308177,
            37.5264417
          ],
          [
            127.1307333,
            37.5264683
          ],
          [
            127.130649,
            37.526495
          ],
          [
            127.1305647,
            37.5265217
          ],
          [
            127.1304803,
            37.5265483
          ],
          [
            127.130396,
            37.526575
          ],
          [
            127.1303117,
            37.5266017
          ],
          [
            127.1302273,
            37.5266283
          ],
          [
            127.130143,
            37.526655
          ],
          [
            127.1301771,
            37.5267244
          ],
          [
            127.1302112,
            37.5267938
          ],
          [
            127.1302453,
            37.5268632
          ],
          [
            127.1302793,
            37.5269327
          ],
          [
            127.1303134,
            37.5270021
          ],
          [
            127.1303475,
            37.5270715
          ],
          [
            127.1303816,
            37.5271409
          ],
          [
            127.1304157,
            37.5272103
          ],
          [
            127.1304497,
            37.5272797
          ],
          [
            127.1304838,
            37.5273492
          ],
          [
            127.1305179,
            37.5274186
          ],
          [
            127.130552,
            37.527488
          ],
          [
            127.1306702,
            37.5274517
          ]
        ],
        "type": "LineString"
      }
    }
  ]
}