{
  "type": "FeatureCollection",
  "features": [
    {
      "type": "Feature",
      "properties": {
        "distance_m": 884,
        "walk_minutes": 11
      },
      "geometry": {
        "type": "LineString",
        "coordinates": [
          [127.1343111, 37.5348662],
          [127.134144, 37.534917],
          [127.134046, 37.534716],
          [127.13373, 37.53407],
          [127.133707, 37.534018],
          [127.13365, 37.53389],
          [127.13351, 37.53359],
          [127.13335, 37.53329],
          [127.13325, 37.53309],
          [127.13322, 37.533023],
          [127.13315, 37.53287],
          [127.133, 37.53256],
          [127.13276, 37.53206],
          [127.132348, 37.531223],
          [127.131904, 37.53032],
          [127.13181, 37.53013],
          [127.131761, 37.530027],
          [127.131279, 37.529011],
          [127.130983, 37.528386],
          [127.1307, 37.52779],
          [127.130678, 37.527744],
          [127.130552, 37.527488],
          [127.1306702, 37.5274517]
        ]
      }
    }
  ]
}
